OBJECT_NAME,OBJECT_ID,EPOCH,MEAN_MOTION,ECCENTRICITY,INCLINATION,RA_OF_ASC_NODE,ARG_OF_PERICENTER,MEAN_ANOMALY,EPHEMERIS_TYPE,CLASSIFICATION_TYPE,NORAD_CAT_ID,ELEMENT_SET_NO,REV_AT_EPOCH,BSTAR,MEAN_MOTION_DOT,MEAN_MOTION_DDOT
IRIDIUM 113,2017-039A,2026-06-27T10:14:15.139104,14.34217765,.0002242,86.3979,317.8979,89.8536,270.2916,0,U,42803,999,47265,-.19164E-5,.14E-6,0
NORSAT 2,2017-042D,2026-06-27T09:58:01.781760,15.22116633,.0009699,97.4038,351.6948,23.9225,336.2460,0,U,42828,999,48929,.47997E-3,.10948E-3,0
TECHNOSAT,2017-042E,2026-06-27T10:07:28.220160,15.05020610,.0019234,97.4291,335.6913,62.4568,297.8610,0,U,42829,999,48824,.21559E-3,.3013E-4,0
FLYING LAPTOP,2017-042G,2026-06-27T12:24:50.753376,15.01208876,.001997,97.4725,333.6550,88.7419,271.6093,0,U,42831,999,48800,.17589E-3,.2209E-4,0
WNISAT 1R,2017-042L,2026-06-27T10:04:03.588672,15.01803164,.0011983,97.4832,334.1762,116.5523,243.6931,0,U,42835,999,48804,.18163E-3,.2313E-4,0
LEMUR-2-GREENBERG,2017-042N,2026-06-27T11:25:18.949728,15.31635576,.0007577,97.3816,359.0552,334.8816,25.2056,0,U,42837,999,48996,.52845E-3,.16095E-3,0
LEMUR-2-FURIAUS,2017-042R,2026-06-27T11:26:42.177984,15.30581225,.0007459,97.3764,356.9881,35.9506,324.2236,0,U,42840,999,48978,.58473E-3,.17246E-3,0
CORVUS BC2,2017-042X,2026-06-27T10:11:48.023232,15.06357828,.0014653,97.4069,339.3774,79.0317,281.2558,0,U,42846,999,48860,.19625E-3,.2835E-4,0
CORVUS BC1,2017-042Y,2026-06-27T10:02:24.597600,15.06520512,.0013035,97.4096,340.1918,57.8526,302.3965,0,U,42847,999,48863,.20887E-3,.3033E-4,0
VRSS-2,2017-060A,2026-06-27T12:32:58.123680,14.81211662,.0018604,97.6512,215.7842,67.9697,292.3490,0,U,42954,999,46998,.17939E-3,.1351E-4,0
MOHAMMED VI-A,2017-070A,2026-06-27T12:11:10.718016,14.77083917,.000124,97.9561,250.6969,78.5863,281.5486,0,U,43005,999,46550,.19029E-3,.1293E-4,0
FENGYUN 3D,2017-072A,2026-06-27T12:10:17.517216,14.19740446,.0002332,99.0124,153.1158,45.5593,314.5773,0,U,43010,999,44645,-.49999E-4,-.152E-5,0
NOAA 20 (JPSS-1),2017-073A,2026-06-27T12:05:28.186944,14.19513488,.0000655,98.7772,117.8747,133.3836,226.7395,0,U,43013,999,44593,.40915E-4,.42E-6,0
MAKERSAT 0,2017-073D,2026-06-27T04:07:21.244224,15.32414292,.01047959,97.4619,60.7702,236.8226,122.2932,0,U,43016,999,46799,.50687114E-3,.18824E-3,0
RADFXSAT (FOX-1B),2017-073E,2026-06-26T20:45:45.694944,15.12844339,.01486006,97.4694,44.8822,295.5005,63.0920,0,U,43017,999,46685,.30343911E-3,.6924E-4,0
JILIN-1 04,2017-074A,2026-06-27T11:10:04.937088,15.42706013,.0004822,97.4867,288.3531,147.5465,212.6080,0,U,43022,999,47585,.33419E-3,.14509E-3,0
JILIN-1 05,2017-074B,2026-06-27T13:24:16.902144,15.34032279,.0005311,97.4872,284.8536,176.7383,183.3895,0,U,43023,999,47559,.24522E-3,.7997E-4,0
JILIN-1 06,2017-074C,2026-06-27T12:45:19.435680,15.33812327,.000662,97.4799,281.8226,190.7601,169.3501,0,U,43024,999,47542,.19821E-3,.6404E-4,0
IRIDIUM 116,2017-083C,2026-06-27T11:18:11.140128,14.34218077,.0002204,86.3973,317.7013,101.7304,258.4140,0,U,43072,999,44564,.27597E-4,.97E-6,0
IRIDIUM 130,2017-083D,2026-06-27T10:32:31.029792,14.34217329,.0002014,86.3979,317.9907,96.8197,263.3228,0,U,43073,999,44558,.2429E-4,.88E-6,0
LKW-2,2017-084A,2026-06-27T12:25:09.763104,15.26476528,.0002167,97.1193,217.8318,152.6091,207.5263,0,U,43080,999,47326,.40346E-3,.10461E-3,0
SUPERVIEW-1 03,2018-002A,2026-06-27T12:01:36.539904,15.39618748,.0047505,97.3139,263.3240,143.0473,217.4062,0,U,43099,999,46995,.49646E-3,.20292E-3,0
CARTOSAT-2F,2018-004A,2026-06-27T11:35:51.293184,15.19292549,.0001767,97.4794,238.0177,163.9555,196.1736,0,U,43111,999,46889,.18167E-3,.3765E-4,0
LKW-3,2018-006A,2026-06-27T13:07:31.397088,15.35438352,.0001725,97.6610,339.5271,262.9272,97.1774,0,U,43146,999,47030,.21168E-3,.7202E-4,0
ASNARO-2,2018-007A,2026-06-27T12:07:34.236768,15.22445818,.0001811,97.3967,185.2711,96.1371,264.0071,0,U,43152,999,46898,.40963E-3,.9412E-4,0
JILIN-1 07,2018-008E,2026-06-27T12:35:22.358112,15.34889771,.0008916,97.1765,198.1777,33.8129,326.3682,0,U,43159,999,46658,.2641E-3,.887E-4,0
JILIN-1 08,2018-008F,2026-06-27T12:45:44.635104,15.33825385,.0007401,97.1799,197.4902,51.4183,308.7722,0,U,43160,999,46653,.18863E-3,.6099E-4,0
S-NET D,2018-014G,2026-06-27T07:00:26.533728,15.16763606,.0007832,97.5361,83.0197,356.9933,3.1252,0,U,43186,999,46029,.29169E-3,.5662E-4,0
