IRIDIUM 113             
1 42803U 17039A   26178.42656411  .00000014  00000+0 -19164-5 0  9991
2 42803  86.3979 317.8979 0002242  89.8536 270.2916 14.34217765472655
NORSAT 2                
1 42828U 17042D   26178.41529840  .00010948  00000+0  47997-3 0  9995
2 42828  97.4038 351.6948 0009699  23.9225 336.2460 15.22116633489295
TECHNOSAT               
1 42829U 17042E   26178.42185440  .00003013  00000+0  21559-3 0  9992
2 42829  97.4291 335.6913 0019234  62.4568 297.8610 15.05020610488248
FLYING LAPTOP           
1 42831U 17042G   26178.51725409  .00002209  00000+0  17589-3 0  9994
2 42831  97.4725 333.6550 0019970  88.7419 271.6093 15.01208876488008
WNISAT 1R               
1 42835U 17042L   26178.41948598  .00002313  00000+0  18163-3 0  9998
2 42835  97.4832 334.1762 0011983 116.5523 243.6931 15.01803164488049
LEMUR-2-GREENBERG       
1 42837U 17042N   26178.47591377  .00016095  00000+0  52845-3 0  9992
2 42837  97.3816 359.0552 0007577 334.8816  25.2056 15.31635576489966
LEMUR-2-FURIAUS         
1 42840U 17042R   26178.47687706  .00017246  00000+0  58473-3 0  9990
2 42840  97.3764 356.9881 0007459  35.9506 324.2236 15.30581225489789
CORVUS BC2              
1 42846U 17042X   26178.42486138  .00002835  00000+0  19625-3 0  9991
2 42846  97.4069 339.3774 0014653  79.0317 281.2558 15.06357828488605
CORVUS BC1              
1 42847U 17042Y   26178.41834025  .00003033  00000+0  20887-3 0  9996
2 42847  97.4096 340.1918 0013035  57.8526 302.3965 15.06520512488637
VRSS-2                  
1 42954U 17060A   26178.52289495  .00001351  00000+0  17939-3 0  9997
2 42954  97.6512 215.7842 0018604  67.9697 292.3490 14.81211662469985
MOHAMMED VI-A           
1 43005U 17070A   26178.50776294  .00001293  00000+0  19029-3 0  9999
2 43005  97.9561 250.6969 0001240  78.5863 281.5486 14.77083917465503
FENGYUN 3D              
1 43010U 17072A   26178.50714719 -.00000152  00000+0 -49999-4 0  9996
2 43010  99.0124 153.1158 0002332  45.5593 314.5773 14.19740446446453
NOAA 20 (JPSS-1)        
1 43013U 17073A   26178.50379846  .00000042  00000+0  40915-4 0  9993
2 43013  98.7772 117.8747 0000655 133.3836 226.7395 14.19513488445934
MAKERSAT 0              
1 43016U 17073D   26178.17177366  .00018824  00000+0  50687-3 0  9995
2 43016  97.4619  60.7702 0104795 236.8226 122.2932 15.32414292467998
RADFXSAT (FOX-1B)       
1 43017U 17073E   26177.86511221  .00006924  00000+0  30344-3 0  9999
2 43017  97.4694  44.8822 0148600 295.5005  63.0920 15.12844339466858
JILIN-1 04              
1 43022U 17074A   26178.46533492  .00014509  00000+0  33419-3 0  9991
2 43022  97.4867 288.3531 0004822 147.5465 212.6080 15.42706013475859
JILIN-1 05              
1 43023U 17074B   26178.55852896  .00007997  00000+0  24522-3 0  9992
2 43023  97.4872 284.8536 0005311 176.7383 183.3895 15.34032279475595
JILIN-1 06              
1 43024U 17074C   26178.53147495  .00006404  00000+0  19821-3 0  9991
2 43024  97.4799 281.8226 0006620 190.7601 169.3501 15.33812327475429
IRIDIUM 116             
1 43072U 17083C   26178.47096227  .00000097  00000+0  27597-4 0  9995
2 43072  86.3973 317.7013 0002204 101.7304 258.4140 14.34218077445644
IRIDIUM 130             
1 43073U 17083D   26178.43924803  .00000088  00000+0  24290-4 0  9999
2 43073  86.3979 317.9907 0002014  96.8197 263.3228 14.34217329445582
LKW-2                   
1 43080U 17084A   26178.51747411  .00010461  00000+0  40346-3 0  9990
2 43080  97.1193 217.8318 0002167 152.6091 207.5263 15.26476528473260
SUPERVIEW-1 03          
1 43099U 18002A   26178.50111736  .00020292  00000+0  49646-3 0  9990
2 43099  97.3139 263.3240 0047505 143.0473 217.4062 15.39618748469959
CARTOSAT-2F             
1 43111U 18004A   26178.48323256  .00003765  00000+0  18167-3 0  9996
2 43111  97.4794 238.0177 0001767 163.9555 196.1736 15.19292549468890
LKW-3                   
1 43146U 18006A   26178.54689117  .00007202  00000+0  21168-3 0  9999
2 43146  97.6610 339.5271 0001725 262.9272  97.1774 15.35438352470302
ASNARO-2                
1 43152U 18007A   26178.50525737  .00009412  00000+0  40963-3 0  9999
2 43152  97.3967 185.2711 0001811  96.1371 264.0071 15.22445818468986
JILIN-1 07              
1 43159U 18008E   26178.52456433  .00008870  00000+0  26410-3 0  9993
2 43159  97.1765 198.1777 0008916  33.8129 326.3682 15.34889771466581
JILIN-1 08              
1 43160U 18008F   26178.53176661  .00006099  00000+0  18863-3 0  9992
2 43160  97.1799 197.4902 0007401  51.4183 308.7722 15.33825385466530
S-NET D                 
1 43186U 18014G   26178.29197377  .00005662  00000+0  29169-3 0  9993
2 43186  97.5361  83.0197 0007832 356.9933   3.1252 15.16763606460296
